{
  "type": "FeatureCollection",
  "name": "MSU_Main_Campus_Spatial_Network_Sprint0",
  "crs": {
    "type": "name",
    "properties": {
      "name": "urn:ogc:def:crs:OGC:1.3:CRS84"
    }
  },
  "features": [
    {
      "type": "Feature",
      "properties": {
        "id": "node-agora",
        "name": "MSU Commercial Center (Agora)",
        "nodeType": "LANDMARK",
        "category": "Landmarks & Commercial",
        "elevation": 720.0
      },
      "geometry": {
        "type": "Point",
        "coordinates": [124.2621, 8.0035]
      }
    },
    {
      "type": "Feature",
      "properties": {
        "id": "node-cics",
        "name": "College of Information and Computing Sciences (CICS)",
        "acronym": "CICS",
        "nodeType": "BUILDING_ENTRANCE",
        "category": "Academic Units",
        "elevation": 725.0
      },
      "geometry": {
        "type": "Point",
        "coordinates": [124.2635, 8.0042]
      }
    },
    {
      "type": "Feature",
      "properties": {
        "id": "node-admin",
        "name": "MSU Senate / Administration Building",
        "acronym": "Admin Bldg",
        "nodeType": "BUILDING_ENTRANCE",
        "category": "Administrative Offices",
        "elevation": 730.0
      },
      "geometry": {
        "type": "Point",
        "coordinates": [124.2612, 8.0051]
      }
    },
    {
      "type": "Feature",
      "properties": {
        "id": "node-dimaporo-gym",
        "name": "Dimaporo Gymnasium",
        "nodeType": "LANDMARK",
        "category": "Sports & Recreation",
        "elevation": 718.0
      },
      "geometry": {
        "type": "Point",
        "coordinates": [124.2605, 8.0028]
      }
    },
    {
      "type": "Feature",
      "properties": {
        "id": "node-peace-park",
        "name": "MSU Peace Park & Golf Course",
        "nodeType": "LANDMARK",
        "category": "Landmarks",
        "elevation": 735.0
      },
      "geometry": {
        "type": "Point",
        "coordinates": [124.2589, 8.0062]
      }
    },
    {
      "type": "Feature",
      "properties": {
        "id": "edge-agora-cics",
        "sourceNodeId": "node-agora",
        "targetNodeId": "node-cics",
        "edgeType": "COVERED_WALKWAY",
        "distanceInMeters": 175.4,
        "isAccessibleForWheelchair": true,
        "isBiDirectional": true
      },
      "geometry": {
        "type": "LineString",
        "coordinates": [
          [124.2621, 8.0035],
          [124.2628, 8.0038],
          [124.2635, 8.0042]
        ]
      }
    },
    {
      "type": "Feature",
      "properties": {
        "id": "edge-agora-admin",
        "sourceNodeId": "node-agora",
        "targetNodeId": "node-admin",
        "edgeType": "PAVED_ROAD",
        "distanceInMeters": 210.0,
        "isAccessibleForWheelchair": true,
        "isBiDirectional": true
      },
      "geometry": {
        "type": "LineString",
        "coordinates": [
          [124.2621, 8.0035],
          [124.2616, 8.0043],
          [124.2612, 8.0051]
        ]
      }
    },
    {
      "type": "Feature",
      "properties": {
        "id": "poly-cics-perimeter",
        "name": "CICS Building Perimeter Boundary",
        "featureType": "PERIMETER_POLYGON"
      },
      "geometry": {
        "type": "Polygon",
        "coordinates": [
          [
            [124.2633, 8.0040],
            [124.2638, 8.0040],
            [124.2638, 8.0045],
            [124.2633, 8.0045],
            [124.2633, 8.0040]
          ]
        ]
      }
    }
  ]
}
